STARLINK-35433          
1 65870U 25223S   26178.19523762  .00020712  00000+0  70962-3 0  9997
2 65870  53.1560 145.3738 0001345  88.4745 271.6410 15.30193928 40981
STARLINK-35465          
1 65871U 25223T   26178.14258471  .00018103  00000+0  62203-3 0  9995
2 65871  53.1566 145.7574 0001257  88.9110 271.2034 15.30190565 40963
STARLINK-34108          
1 65872U 25223U   26178.19417796  .00013172  00000+0  45603-3 0  9994
2 65872  53.1562 145.3663 0000804  88.0895 272.0198 15.30202092 40973
STARLINK-35423          
1 65873U 25223V   26178.27690276  .00017066  00000+0  51528-3 0  9999
2 65873  53.1570 143.7553 0001412  90.8551 269.2613 15.34386373 41003
STARLINK-35425          
1 65874U 25223W   26178.18871309  .00027881  00000+0  83358-3 0  9990
2 65874  53.1569 144.6276 0001153  80.4053 279.7080 15.34387915 40981
STARLINK-34688          
1 65875U 25223X   26178.23070688  .00025351  00000+0  75884-3 0  9993
2 65875  53.1582 144.1799 0001457  86.4136 273.7034 15.34402228 40996
STARLINK-34438          
1 65876U 25223Y   26178.20975297  .00021697  00000+0  65171-3 0  9998
2 65876  53.1570 144.7556 0001387  93.0405 267.0756 15.34386734 40985
STARLINK-35462          
1 65877U 25223Z   26178.18573859  .00031275  00000+0  10638-2 0  9994
2 65877  53.1571 145.3118 0001246  92.3869 267.7275 15.30193357 40973
STARLINK-35453          
1 65878U 25223AA  26178.22226677  .00027478  00000+0  82042-3 0  9992
2 65878  53.1571 144.1245 0000883  94.8730 265.2373 15.34437620 40994
STARLINK-35418          
1 65879U 25223AB  26178.17187963  .00030247  00000+0  90292-3 0  9995
2 65879  53.1577 144.5216 0001196  78.0114 282.1023 15.34393096 40988
STARLINK-35445          
1 65880U 25223AC  26178.16767196  .00020926  00000+0  62894-3 0  9998
2 65880  53.1588 144.4921 0001426  88.2241 271.8925 15.34389790 40986
STARLINK-35464          
1 65881U 25223AD  26178.21597927  .00022774  00000+0  68347-3 0  9990
2 65881  53.1568 144.0827 0001297  95.0074 265.1077 15.34383572 40999
STARLINK-35270          
1 65882U 25224A   26178.30751172  .00017013  00000+0  51356-3 0  9998
2 65882  53.1580 220.3256 0001697  95.3638 264.7558 15.34397471 41635
STARLINK-35367          
1 65883U 25224B   26178.29488713  .00020230  00000+0  60834-3 0  9991
2 65883  53.1568 220.2467 0001183  87.4031 272.7107 15.34394756 41636
STARLINK-35384          
1 65884U 25224C   26178.29136843  .00016468  00000+0  56693-3 0  9992
2 65884  53.1562 222.3518 0000535  90.3335 269.7727 15.30198023 41607
STARLINK-35415          
1 65885U 25224D   26178.28857664  .00018311  00000+0  55185-3 0  9997
2 65885  53.1563 220.2048 0001857  83.0787 277.0426 15.34394728 41581
STARLINK-35413          
1 65886U 25224E   26178.28436414  .00023435  00000+0  70254-3 0  9991
2 65886  53.1562 220.1790 0001153 117.7266 242.3853 15.34400247 41583
STARLINK-35332          
1 65887U 25224F   26178.27594834  .00028124  00000+0  84029-3 0  9997
2 65887  53.1564 220.1245 0000962  94.3092 265.8021 15.34403467 41668
STARLINK-35362          
1 65888U 25224G   26178.29877948  .00020529  00000+0  70339-3 0  9990
2 65888  53.1579 222.3947 0001221  79.7159 280.3980 15.30197719 41604
STARLINK-35193          
1 65889U 25224H   26178.30825335  .00012820  00000+0  44436-3 0  9990
2 65889  53.1583 222.4436 0001430  89.8618 270.2547 15.30190275 41638
STARLINK-34542          
1 65890U 25224J   26178.30509103  .00013650  00000+0  47219-3 0  9998
2 65890  53.1575 222.4355 0001553  83.4147 276.7031 15.30197494 41655
STARLINK-34791          
1 65891U 25224K   26177.85738111  .00006649  00000+0  23638-3 0  9990
2 65891  53.1594 224.6068 0001496  88.0583 272.0589 15.30202580 41585
STARLINK-34853          
1 65892U 25224L   26178.30119940  .00023157  00000+0  69441-3 0  9990
2 65892  53.1575 220.2847 0001251  85.8867 274.2279 15.34398858 41613
STARLINK-34921          
1 65893U 25224M   26178.30192681  .00020454  00000+0  70093-3 0  9996
2 65893  53.1576 222.4041 0001513  35.9087 324.2016 15.30194723 41656
STARLINK-34672          
1 65894U 25224N   26178.29453640  .00015728  00000+0  54199-3 0  9997
2 65894  53.1564 222.3591 0001978  86.4771 273.6456 15.30201477 41659
STARLINK-34898          
1 65895U 25224P   26178.30540515  .00026018  00000+0  77839-3 0  9998
2 65895  53.1580 220.3005 0001107  93.7125 266.4004 15.34404017 41685
STARLINK-34906          
1 65896U 25224Q   26178.29360392  .00016624  00000+0  54617-3 0  9991
2 65896  53.1563 221.6458 0000974  90.9012 269.2101 15.31704996 41661
STARLINK-34934          
1 65897U 25224R   26178.29277833  .00028155  00000+0  84114-3 0  9996
2 65897  53.1571 220.2184 0000863  98.0201 262.0900 15.34405451 41630
STARLINK-34936          
1 65898U 25224S   26178.29909278  .00014206  00000+0  43080-3 0  9991
2 65898  53.1576 220.2606 0001006  77.8764 282.2351 15.34397792 41681
STARLINK-35272          
1 65899U 25224T   26178.28226139  .00017250  00000+0  52067-3 0  9996
2 65899  53.1560 220.1541 0001066  94.9906 265.1218 15.34388733 41672
