OBJECT_NAME,OBJECT_ID,EPOCH,MEAN_MOTION,ECCENTRICITY,INCLINATION,RA_OF_ASC_NODE,ARG_OF_PERICENTER,MEAN_ANOMALY,EPHEMERIS_TYPE,CLASSIFICATION_TYPE,NORAD_CAT_ID,ELEMENT_SET_NO,REV_AT_EPOCH,BSTAR,MEAN_MOTION_DOT,MEAN_MOTION_DDOT
STARLINK-35433,2025-223S,2026-06-27T04:41:08.530368,15.30193928,.00013455,53.1560,145.3738,88.4745,271.6410,0,U,65870,999,4098,.7096184E-3,.20712E-3,0
STARLINK-35465,2025-223T,2026-06-27T03:25:19.318944,15.30190565,.00012576,53.1566,145.7574,88.9110,271.2034,0,U,65871,999,4096,.62202817E-3,.18103E-3,0
STARLINK-34108,2025-223U,2026-06-27T04:39:36.975744,15.30202092,.00008043,53.1562,145.3663,88.0895,272.0198,0,U,65872,999,4097,.45602705E-3,.13172E-3,0
STARLINK-35423,2025-223V,2026-06-27T06:38:44.398464,15.34386373,.00014124,53.1570,143.7553,90.8551,269.2613,0,U,65873,999,4100,.51528391E-3,.17066E-3,0
STARLINK-35425,2025-223W,2026-06-27T04:31:44.810976,15.34387915,.00011539,53.1569,144.6276,80.4053,279.7080,0,U,65874,999,4098,.83357584E-3,.27881E-3,0
STARLINK-34688,2025-223X,2026-06-27T05:32:13.074432,15.34402228,.00014577,53.1582,144.1799,86.4136,273.7034,0,U,65875,999,4099,.7588386E-3,.25351E-3,0
STARLINK-34438,2025-223Y,2026-06-27T05:02:02.656608,15.34386734,.00013875,53.1570,144.7556,93.0405,267.0756,0,U,65876,999,4098,.65170872E-3,.21697E-3,0
STARLINK-35462,2025-223Z,2026-06-27T04:27:27.814176,15.30193357,.00012463,53.1571,145.3118,92.3869,267.7275,0,U,65877,999,4097,.10638413E-2,.31275E-3,0
STARLINK-35453,2025-223AA,2026-06-27T05:20:03.848928,15.34437620,.00008835,53.1571,144.1245,94.8730,265.2373,0,U,65878,999,4099,.82042109E-3,.27478E-3,0
STARLINK-35418,2025-223AB,2026-06-27T04:07:30.400032,15.34393096,.00011967,53.1577,144.5216,78.0114,282.1023,0,U,65879,999,4098,.90291735E-3,.30247E-3,0
STARLINK-35445,2025-223AC,2026-06-27T04:01:26.857344,15.34389790,.00014268,53.1588,144.4921,88.2241,271.8925,0,U,65880,999,4098,.62893676E-3,.20926E-3,0
STARLINK-35464,2025-223AD,2026-06-27T05:11:00.608928,15.34383572,.00012979,53.1568,144.0827,95.0074,265.1077,0,U,65881,999,4099,.683466E-3,.22774E-3,0
STARLINK-35270,2025-224A,2026-06-27T07:22:49.012608,15.34397471,.00016979,53.1580,220.3256,95.3638,264.7558,0,U,65882,999,4163,.51356152E-3,.17013E-3,0
STARLINK-35367,2025-224B,2026-06-27T07:04:38.248032,15.34394756,.00011836,53.1568,220.2467,87.4031,272.7107,0,U,65883,999,4163,.60834202E-3,.2023E-3,0
STARLINK-35384,2025-224C,2026-06-27T06:59:34.232352,15.30198023,.00005356,53.1562,222.3518,90.3335,269.7727,0,U,65884,999,4160,.56692826E-3,.16468E-3,0
STARLINK-35415,2025-224D,2026-06-27T06:55:33.021696,15.34394728,.00018577,53.1563,220.2048,83.0787,277.0426,0,U,65885,999,4158,.55185045E-3,.18311E-3,0
STARLINK-35413,2025-224E,2026-06-27T06:49:29.061696,15.34400247,.0001153,53.1562,220.1790,117.7266,242.3853,0,U,65886,999,4158,.7025384E-3,.23435E-3,0
STARLINK-35332,2025-224F,2026-06-27T06:37:21.936576,15.34403467,.00009621,53.1564,220.1245,94.3092,265.8021,0,U,65887,999,4166,.84028821E-3,.28124E-3,0
STARLINK-35362,2025-224G,2026-06-27T07:10:14.547072,15.30197719,.00012216,53.1579,222.3947,79.7159,280.3980,0,U,65888,999,4160,.70339494E-3,.20529E-3,0
STARLINK-35193,2025-224H,2026-06-27T07:23:53.089440,15.30190275,.00014303,53.1583,222.4436,89.8618,270.2547,0,U,65889,999,4163,.44435681E-3,.1282E-3,0
STARLINK-34542,2025-224J,2026-06-27T07:19:19.864992,15.30197494,.00015534,53.1575,222.4355,83.4147,276.7031,0,U,65890,999,4165,.47219022E-3,.1365E-3,0
STARLINK-34791,2025-224K,2026-06-26T20:34:37.727904,15.30202580,.00014961,53.1594,224.6068,88.0583,272.0589,0,U,65891,999,4158,.2363848E-3,.6649E-4,0
STARLINK-34853,2025-224L,2026-06-27T07:13:43.628160,15.34398858,.00012516,53.1575,220.2847,85.8867,274.2279,0,U,65892,999,4161,.69441338E-3,.23157E-3,0
STARLINK-34921,2025-224M,2026-06-27T07:14:46.476384,15.30194723,.00015138,53.1576,222.4041,35.9087,324.2016,0,U,65893,999,4165,.70093191E-3,.20454E-3,0
STARLINK-34672,2025-224N,2026-06-27T07:04:07.944960,15.30201477,.00019787,53.1564,222.3591,86.4771,273.6456,0,U,65894,999,4165,.54199033E-3,.15728E-3,0
STARLINK-34898,2025-224P,2026-06-27T07:19:47.004960,15.34404017,.00011075,53.1580,220.3005,93.7125,266.4004,0,U,65895,999,4168,.77839327E-3,.26018E-3,0
STARLINK-34906,2025-224Q,2026-06-27T07:02:47.378688,15.31704996,.00009749,53.1563,221.6458,90.9012,269.2101,0,U,65896,999,4166,.54616625E-3,.16624E-3,0
STARLINK-34934,2025-224R,2026-06-27T07:01:36.047712,15.34405451,.00008633,53.1571,220.2184,98.0201,262.0900,0,U,65897,999,4163,.84114125E-3,.28155E-3,0
STARLINK-34936,2025-224S,2026-06-27T07:10:41.616192,15.34397792,.00010065,53.1576,220.2606,77.8764,282.2351,0,U,65898,999,4168,.43079733E-3,.14206E-3,0
STARLINK-35272,2025-224T,2026-06-27T06:46:27.384096,15.34388733,.00010669,53.1560,220.1541,94.9906,265.1218,0,U,65899,999,4167,.52066503E-3,.1725E-3,0
